STARLINK-31134          
1 58621U 23203D   26068.34489044  .00002548  00000+0  10214-3 0  9999
2 58621  43.0027  69.4663 0001414 264.5032  95.5658 15.27565704123507
XCUBE-1                 
1 62400U 24247Z   26068.48297321  .00009773  00000+0  36224-3 0  9994
2 62400  44.9938 117.7807 0005235 331.1499  28.9094 15.27910558 67702
